[{"OBJECT_NAME":"STARLINK-35539","OBJECT_ID":"2025-225F","EPOCH":"2026-03-09T12:45:12.470976","MEAN_MOTION":15.30161108,"ECCENTRICITY":0.00015694,"INCLINATION":53.159,"RA_OF_ASC_NODE":166.4505,"ARG_OF_PERICENTER":68.7551,"MEAN_ANOMALY":291.3618,"EPHEMERIS_TYPE":0,"CLASSIFICATION_TYPE":"U","NORAD_CAT_ID":65915,"ELEMENT_SET_NO":999,"REV_AT_EPOCH":2438,"BSTAR":0.0012806501,"MEAN_MOTION_DOT":0.00037717,"MEAN_MOTION_DDOT":0},{"OBJECT_NAME":"CZ-4C R\/B","OBJECT_ID":"2021-079B","EPOCH":"2026-03-09T14:04:29.438112","MEAN_MOTION":15.08928015,"ECCENTRICITY":0.0108377,"INCLINATION":98.3883,"RA_OF_ASC_NODE":282.6111,"ARG_OF_PERICENTER":26.1585,"MEAN_ANOMALY":334.506,"EPHEMERIS_TYPE":0,"CLASSIFICATION_TYPE":"U","NORAD_CAT_ID":49123,"ELEMENT_SET_NO":999,"REV_AT_EPOCH":24640,"BSTAR":0.00023549,"MEAN_MOTION_DOT":4.178e-5,"MEAN_MOTION_DDOT":0}]
